start=new Date('2023-02-21T00:00:00.000Z').valueOf();
sats=[{"TIME_SYSTEM":"UTC","LAUNCH_DATE":"2022-07-17","CENTER_NAME":"EARTH","TLE_LINE1":"1 53156U 22083AA  23051.62621723  .00022382  00000-0  14189-2 0  9997","RCS_SIZE":"LARGE","PERIAPSIS":"538.866","INCLINATION":"53.2164","RA_OF_ASC_NODE":"120.8601","TLE_LINE2":"2 53156  53.2164 120.8601 0001157 105.3182 254.7938 15.08865817 33952","ARG_OF_PERICENTER":"105.3182","DECAY_DATE":null,"ECCENTRICITY":"0.00011570","EPOCH":"2023-02-20T15:01:45.168672","REV_AT_EPOCH":"3395","EPHEMERIS_TYPE":"0","ELEMENT_SET_NO":"999","MEAN_ELEMENT_THEORY":"SGP4","NORAD_CAT_ID":"53156","OBJECT_TYPE":"PAYLOAD","GP_ID":"226170438","SEMIMAJOR_AXIS":"6917.801","CLASSIFICATION_TYPE":"U","MEAN_MOTION_DDOT":"0.0000000000000","APOAPSIS":"540.467","MEAN_MOTION_DOT":"0.00022382","PERIOD":"95.436","COUNTRY_CODE":"US","SITE":"AFETR","OBJECT_NAME":"STARLINK-4087","OBJECT_ID":"2022-083AA","MEAN_ANOMALY":"254.7938","BSTAR":"0.00141890000000","REF_FRAME":"TEME","FILE":"3816172","MEAN_MOTION":"15.08865817"},{"BSTAR":"0.00116030000000","OBJECT_ID":"2022-083AB","MEAN_ANOMALY":"269.4216","OBJECT_NAME":"STARLINK-4093","MEAN_MOTION":"15.08866881","FILE":"3815761","REF_FRAME":"TEME","APOAPSIS":"540.697","MEAN_MOTION_DDOT":"0.0000000000000","CLASSIFICATION_TYPE":"U","SEMIMAJOR_AXIS":"6917.798","COUNTRY_CODE":"US","SITE":"AFETR","MEAN_MOTION_DOT":"0.00018240","PERIOD":"95.436","ELEMENT_SET_NO":"999","EPHEMERIS_TYPE":"0","REV_AT_EPOCH":"3331","EPOCH":"2023-02-20T13:14:23.306496","ECCENTRICITY":"0.00014940","OBJECT_TYPE":"PAYLOAD","GP_ID":"226158996","NORAD_CAT_ID":"53157","MEAN_ELEMENT_THEORY":"SGP4","PERIAPSIS":"538.630","INCLINATION":"53.2174","RCS_SIZE":"LARGE","TLE_LINE1":"1 53157U 22083AB  23051.55165864  .00018240  00000-0  11603-2 0  9995","CENTER_NAME":"EARTH","LAUNCH_DATE":"2022-07-17","TIME_SYSTEM":"UTC","DECAY_DATE":null,"ARG_OF_PERICENTER":"90.6947","TLE_LINE2":"2 53157  53.2174 121.1982 0001494  90.6947 269.4216 15.08866881 33313","RA_OF_ASC_NODE":"121.1982"},{"CLASSIFICATION_TYPE":"U","MEAN_MOTION_DDOT":"0.0000000000000","SEMIMAJOR_AXIS":"6917.877","APOAPSIS":"540.328","PERIOD":"95.437","MEAN_MOTION_DOT":"0.00032703","SITE":"AFETR","COUNTRY_CODE":"US","MEAN_ANOMALY":"266.7346","OBJECT_ID":"2022-083AC","BSTAR":"0.00206330000000","OBJECT_NAME":"STARLINK-4054","MEAN_MOTION":"15.08840966","FILE":"3815761","REF_FRAME":"TEME","PERIAPSIS":"539.156","INCLINATION":"53.2162","RCS_SIZE":"LARGE","CENTER_NAME":"EARTH","LAUNCH_DATE":"2022-07-17","TIME_SYSTEM":"UTC","TLE_LINE1":"1 53158U 22083AC  23051.56269985  .00032703  00000-0  20633-2 0  9999","ARG_OF_PERICENTER":"93.3743","DECAY_DATE":null,"RA_OF_ASC_NODE":"121.1409","TLE_LINE2":"2 53158  53.2162 121.1409 0000847  93.3743 266.7346 15.08840966 33310","REV_AT_EPOCH":"3331","ELEMENT_SET_NO":"999","EPHEMERIS_TYPE":"0","EPOCH":"2023-02-20T13:30:17.267040","ECCENTRICITY":"0.00008470","GP_ID":"226159247","OBJECT_TYPE":"PAYLOAD","NORAD_CAT_ID":"53158","MEAN_ELEMENT_THEORY":"SGP4"},{"ECCENTRICITY":"0.00013850","EPOCH":"2023-02-20T13:03:47.487168","REV_AT_EPOCH":"3331","EPHEMERIS_TYPE":"0","ELEMENT_SET_NO":"999","MEAN_ELEMENT_THEORY":"SGP4","NORAD_CAT_ID":"53159","GP_ID":"226157996","OBJECT_TYPE":"PAYLOAD","TIME_SYSTEM":"UTC","CENTER_NAME":"EARTH","LAUNCH_DATE":"2022-07-17","TLE_LINE1":"1 53159U 22083AD  23051.54429962  .00005766  00000-0  37985-3 0  9999","RCS_SIZE":"LARGE","INCLINATION":"53.2175","PERIAPSIS":"538.727","RA_OF_ASC_NODE":"121.2224","TLE_LINE2":"2 53159  53.2175 121.2224 0001385  90.8915 269.2235 15.08859700 33313","ARG_OF_PERICENTER":"90.8915","DECAY_DATE":null,"OBJECT_NAME":"STARLINK-4111","MEAN_ANOMALY":"269.2235","OBJECT_ID":"2022-083AD","BSTAR":"0.00037985000000","REF_FRAME":"TEME","FILE":"3815761","MEAN_MOTION":"15.08859700","SEMIMAJOR_AXIS":"6917.820","CLASSIFICATION_TYPE":"U","MEAN_MOTION_DDOT":"0.0000000000000","APOAPSIS":"540.643","MEAN_MOTION_DOT":"0.00005766","PERIOD":"95.436","SITE":"AFETR","COUNTRY_CODE":"US"},{"COUNTRY_CODE":"US","SITE":"AFETR","MEAN_MOTION_DOT":"0.00010009","PERIOD":"95.437","APOAPSIS":"540.453","SEMIMAJOR_AXIS":"6917.831","MEAN_MOTION_DDOT":"0.0000000000000","CLASSIFICATION_TYPE":"U","REF_FRAME":"TEME","FILE":"3815761","MEAN_MOTION":"15.08856189","OBJECT_NAME":"STARLINK-4096","BSTAR":"0.00064580000000","OBJECT_ID":"2022-083AE","MEAN_ANOMALY":"263.0742","TLE_LINE2":"2 53160  53.2165 121.1722 0001094  97.0375 263.0742 15.08856189 33315","RA_OF_ASC_NODE":"121.1722","DECAY_DATE":null,"ARG_OF_PERICENTER":"97.0375","TLE_LINE1":"1 53160U 22083AE  23051.55534355  .00010009  00000-0  64580-3 0  9992","TIME_SYSTEM":"UTC","CENTER_NAME":"EARTH","LAUNCH_DATE":"2022-07-17","RCS_SIZE":"LARGE","PERIAPSIS":"538.939","INCLINATION":"53.2165","MEAN_ELEMENT_THEORY":"SGP4","NORAD_CAT_ID":"53160","OBJECT_TYPE":"PAYLOAD","GP_ID":"226158246","ECCENTRICITY":"0.00010940","EPOCH":"2023-02-20T13:19:41.682720","EPHEMERIS_TYPE":"0","ELEMENT_SET_NO":"999","REV_AT_EPOCH":"3331"},{"OBJECT_NAME":"STARLINK-4055","MEAN_ANOMALY":"281.0391","OBJECT_ID":"2022-083AF","BSTAR":"0.00052256000000","FILE":"3816202","REF_FRAME":"TEME","MEAN_MOTION":"15.08864847","MEAN_MOTION_DDOT":"0.0000000000000","CLASSIFICATION_TYPE":"U","SEMIMAJOR_AXIS":"6917.804","APOAPSIS":"540.453","PERIOD":"95.436","MEAN_MOTION_DOT":"0.00008044","COUNTRY_CODE":"US","SITE":"AFETR","EPOCH":"2023-02-20T15:58:39.631872","ECCENTRICITY":"0.00011330","REV_AT_EPOCH":"3396","ELEMENT_SET_NO":"999","EPHEMERIS_TYPE":"0","MEAN_ELEMENT_THEORY":"SGP4","NORAD_CAT_ID":"53161","OBJECT_TYPE":"PAYLOAD","GP_ID":"226170036","LAUNCH_DATE":"2022-07-17","CENTER_NAME":"EARTH","TIME_SYSTEM":"UTC","TLE_LINE1":"1 53161U 22083AF  23051.66573648  .00008044  00000-0  52256-3 0  9996","INCLINATION":"53.2141","PERIAPSIS":"538.886","RCS_SIZE":"LARGE","RA_OF_ASC_NODE":"120.6837","TLE_LINE2":"2 53161  53.2141 120.6837 0001133  79.0728 281.0391 15.08864847 33968","ARG_OF_PERICENTER":"79.0728","DECAY_DATE":null},{"ARG_OF_PERICENTER":"91.9500","DECAY_DATE":null,"RA_OF_ASC_NODE":"121.5110","TLE_LINE2":"2 53162  53.2176 121.5110 0001235  91.9500 268.1633 15.08853568 33306","RCS_SIZE":"LARGE","PERIAPSIS":"538.850","INCLINATION":"53.2176","TIME_SYSTEM":"UTC","CENTER_NAME":"EARTH","LAUNCH_DATE":"2022-07-17","TLE_LINE1":"1 53162U 22083AG  23051.48174395  .00005337  00000-0  35300-3 0  9996","OBJECT_TYPE":"PAYLOAD","GP_ID":"226158747","NORAD_CAT_ID":"53162","MEAN_ELEMENT_THEORY":"SGP4","REV_AT_EPOCH":"3330","EPHEMERIS_TYPE":"0","ELEMENT_SET_NO":"999","ECCENTRICITY":"0.00012350","EPOCH":"2023-02-20T11:33:42.677280","MEAN_MOTION_DOT":"0.00005337","PERIOD":"95.437","SITE":"AFETR","COUNTRY_CODE":"US","SEMIMAJOR_AXIS":"6917.839","MEAN_MOTION_DDOT":"0.0000000000000","CLASSIFICATION_TYPE":"U","APOAPSIS":"540.558","MEAN_MOTION":"15.08853568","REF_FRAME":"TEME","FILE":"3815761","OBJECT_ID":"2022-083AG","MEAN_ANOMALY":"268.1633","BSTAR":"0.00035300000000","OBJECT_NAME":"STARLINK-4114"},{"LAUNCH_DATE":"2022-07-17","CENTER_NAME":"EARTH","TIME_SYSTEM":"UTC","TLE_LINE1":"1 53163U 22083AH  23051.59309715  .00010020  00000-0  64630-3 0  9998","INCLINATION":"53.2140","PERIAPSIS":"538.834","RCS_SIZE":"LARGE","RA_OF_ASC_NODE":"121.0054","TLE_LINE2":"2 53163  53.2140 121.0054 0001204  98.1788 261.9341 15.08865745 33951","ARG_OF_PERICENTER":"98.1788","DECAY_DATE":null,"EPOCH":"2023-02-20T14:14:03.593760","ECCENTRICITY":"0.00012040","REV_AT_EPOCH":"3395","ELEMENT_SET_NO":"999","EPHEMERIS_TYPE":"0","NORAD_CAT_ID":"53163","MEAN_ELEMENT_THEORY":"SGP4","GP_ID":"226171909","OBJECT_TYPE":"PAYLOAD","CLASSIFICATION_TYPE":"U","MEAN_MOTION_DDOT":"0.0000000000000","SEMIMAJOR_AXIS":"6917.802","APOAPSIS":"540.500","MEAN_MOTION_DOT":"0.00010020","PERIOD":"95.436","COUNTRY_CODE":"US","SITE":"AFETR","OBJECT_NAME":"STARLINK-4104","OBJECT_ID":"2022-083AH","MEAN_ANOMALY":"261.9341","BSTAR":"0.00064630000000","FILE":"3816265","REF_FRAME":"TEME","MEAN_MOTION":"15.08865745"},{"OBJECT_NAME":"STARLINK-4116","BSTAR":"0.00019477000000","OBJECT_ID":"2022-083AJ","MEAN_ANOMALY":"250.6815","REF_FRAME":"TEME","FILE":"3815761","MEAN_MOTION":"15.08839349","APOAPSIS":"540.472","SEMIMAJOR_AXIS":"6917.882","MEAN_MOTION_DDOT":"0.0000000000000","CLASSIFICATION_TYPE":"U","SITE":"AFETR","COUNTRY_CODE":"US","MEAN_MOTION_DOT":"0.00002813","PERIOD":"95.438","ECCENTRICITY":"0.00010480","EPOCH":"2023-02-20T11:17:48.912000","EPHEMERIS_TYPE":"0","ELEMENT_SET_NO":"999","REV_AT_EPOCH":"3330","MEAN_ELEMENT_THEORY":"SGP4","NORAD_CAT_ID":"53164","GP_ID":"226157746","OBJECT_TYPE":"PAYLOAD","TLE_LINE1":"1 53164U 22083AJ  23051.47070500  .00002813  00000-0  19477-3 0  9993","TIME_SYSTEM":"UTC","LAUNCH_DATE":"2022-07-17","CENTER_NAME":"EARTH","RCS_SIZE":"LARGE","INCLINATION":"53.2165","PERIAPSIS":"539.022","TLE_LINE2":"2 53164  53.2165 121.5585 0001048 109.4291 250.6815 15.08839349 33305","RA_OF_ASC_NODE":"121.5585","DECAY_DATE":null,"ARG_OF_PERICENTER":"109.4291"},{"MEAN_MOTION":"15.08856454","REF_FRAME":"TEME","FILE":"3815761","OBJECT_ID":"2022-083AK","MEAN_ANOMALY":"272.6489","BSTAR":"0.00167010000000","OBJECT_NAME":"STARLINK-4090","MEAN_MOTION_DOT":"0.00026404","PERIOD":"95.437","COUNTRY_CODE":"US","SITE":"AFETR","SEMIMAJOR_AXIS":"6917.830","MEAN_MOTION_DDOT":"0.0000000000000","CLASSIFICATION_TYPE":"U","APOAPSIS":"540.491","OBJECT_TYPE":"PAYLOAD","GP_ID":"226158997","MEAN_ELEMENT_THEORY":"SGP4","NORAD_CAT_ID":"53165","REV_AT_EPOCH":"3330","EPHEMERIS_TYPE":"0","ELEMENT_SET_NO":"999","ECCENTRICITY":"0.00011500","EPOCH":"2023-02-20T10:56:36.950208","ARG_OF_PERICENTER":"87.4635","DECAY_DATE":null,"RA_OF_ASC_NODE":"121.6257","TLE_LINE2":"2 53165  53.2131 121.6257 0001150  87.4635 272.6489 15.08856454 33304","RCS_SIZE":"LARGE","INCLINATION":"53.2131","PERIAPSIS":"538.900","TIME_SYSTEM":"UTC","CENTER_NAME":"EARTH","LAUNCH_DATE":"2022-07-17","TLE_LINE1":"1 53165U 22083AK  23051.45598322  .00026404  00000-0  16701-2 0  9997"}];
